[{"OBJECT_NAME":"STARLINK-30603","OBJECT_ID":"2023-160F","EPOCH":"2026-03-09T02:03:07.299360","MEAN_MOTION":15.26740098,"ECCENTRICITY":8.567e-5,"INCLINATION":43.0002,"RA_OF_ASC_NODE":81.2749,"ARG_OF_PERICENTER":263.4844,"MEAN_ANOMALY":96.591,"EPHEMERIS_TYPE":0,"CLASSIFICATION_TYPE":"U","NORAD_CAT_ID":58080,"ELEMENT_SET_NO":999,"REV_AT_EPOCH":13285,"BSTAR":-0.00014195897,"MEAN_MOTION_DOT":-4.065e-5,"MEAN_MOTION_DDOT":0},{"OBJECT_NAME":"CZ-6A DEB","OBJECT_ID":"2024-140NC","EPOCH":"2026-03-09T01:19:44.598720","MEAN_MOTION":14.85954551,"ECCENTRICITY":0.01874643,"INCLINATION":89.0262,"RA_OF_ASC_NODE":281.6645,"ARG_OF_PERICENTER":160.2054,"MEAN_ANOMALY":200.6578,"EPHEMERIS_TYPE":0,"CLASSIFICATION_TYPE":"U","NORAD_CAT_ID":61086,"ELEMENT_SET_NO":999,"REV_AT_EPOCH":8276,"BSTAR":0.00091551765,"MEAN_MOTION_DOT":0.00011041,"MEAN_MOTION_DDOT":0}]
